[{"OBJECT_NAME":"GLOBAL-2","OBJECT_ID":"2018-099BG","EPOCH":"2026-03-09T16:47:21.463008","MEAN_MOTION":15.08046936,"ECCENTRICITY":0.00074537,"INCLINATION":97.3697,"RA_OF_ASC_NODE":109.328,"ARG_OF_PERICENTER":127.1924,"MEAN_ANOMALY":232.9986,"EPHEMERIS_TYPE":0,"CLASSIFICATION_TYPE":"U","NORAD_CAT_ID":43812,"ELEMENT_SET_NO":999,"REV_AT_EPOCH":39691,"BSTAR":0.0002614533,"MEAN_MOTION_DOT":3.97e-5,"MEAN_MOTION_DDOT":0},{"OBJECT_NAME":"STARLINK-3195","OBJECT_ID":"2021-115AQ","EPOCH":"2026-03-09T12:15:02.584512","MEAN_MOTION":15.08841283,"ECCENTRICITY":0.00014051,"INCLINATION":53.2171,"RA_OF_ASC_NODE":139.9291,"ARG_OF_PERICENTER":88.9387,"MEAN_ANOMALY":271.1766,"EPHEMERIS_TYPE":0,"CLASSIFICATION_TYPE":"U","NORAD_CAT_ID":49762,"ELEMENT_SET_NO":999,"REV_AT_EPOCH":23565,"BSTAR":6.4667231e-5,"MEAN_MOTION_DOT":7.41e-6,"MEAN_MOTION_DDOT":0}]
