GLOBAL-2                
1 43812U 18099BG  26068.69955396  .00003970  00000+0  26145-3 0  9998
2 43812  97.3697 109.3280 0007454 127.1924 232.9986 15.08046936396919
STARLINK-3195           
1 49762U 21115AQ  26068.51044658  .00000741  00000+0  64667-4 0  9997
2 49762  53.2171 139.9291 0001405  88.9387 271.1766 15.08841283235657
